[{"OBJECT_NAME":"STARLINK-31555","OBJECT_ID":"2024-060D","EPOCH":"2026-03-09T21:34:36.894432","MEAN_MOTION":15.27572673,"ECCENTRICITY":0.0001094,"INCLINATION":43.0029,"RA_OF_ASC_NODE":258.7792,"ARG_OF_PERICENTER":263.3703,"MEAN_ANOMALY":96.7025,"EPHEMERIS_TYPE":0,"CLASSIFICATION_TYPE":"U","NORAD_CAT_ID":59351,"ELEMENT_SET_NO":999,"REV_AT_EPOCH":11014,"BSTAR":9.875847e-6,"MEAN_MOTION_DOT":1.0e-7,"MEAN_MOTION_DDOT":0},{"OBJECT_NAME":"COSMOS 546","OBJECT_ID":"1973-005A","EPOCH":"2026-03-09T21:40:39.247392","MEAN_MOTION":15.29707303,"ECCENTRICITY":0.00147738,"INCLINATION":50.6327,"RA_OF_ASC_NODE":289.914,"ARG_OF_PERICENTER":261.1516,"MEAN_ANOMALY":98.7778,"EPHEMERIS_TYPE":0,"CLASSIFICATION_TYPE":"U","NORAD_CAT_ID":6350,"ELEMENT_SET_NO":999,"REV_AT_EPOCH":92802,"BSTAR":9.142057e-5,"MEAN_MOTION_DOT":2.316e-5,"MEAN_MOTION_DDOT":0}]
